GLOBALSTAR M001         
1 25162U 98008A   25290.33303918 -.00000126  00000+0 -22176-3 0  9990
2 25162  52.0055 337.7068 0001706 145.5474 295.1829 12.38219633258844
GLOBALSTAR M004         
1 25163U 98008B   25290.71830337 -.00000046  00000+0  31886-3 0  9991
2 25163  52.0021  40.3339 0003209 189.8666 318.0972 12.63406057277177
GLOBALSTAR M002         
1 25164U 98008C   25290.71084895 -.00000057  00000+0  37891-3 0  9996
2 25164  52.0014 292.9976 0001595  13.7371 346.3492 11.61512676198306
GLOBALSTAR M003         
1 25165U 98008D   25290.65120295 -.00000200  00000+0 -11827-2 0  9996
2 25165  51.9932 189.3420 0007718 173.6424 193.0850 12.12054855248077
GLOBALSTAR M014         
1 25306U 98023A   25290.75465536 -.00000088  00000+0 -19894-3 0  9998
2 25306  51.9826 213.5325 0000247 198.5051 174.9373 11.65482591205465
GLOBALSTAR M006         
1 25307U 98023B   25290.36487339 -.00000044  00000+0  65677-3 0  9992
2 25307  51.9930 271.5585 0003255 333.2644 203.2309 11.58177204230986
GLOBALSTAR M015         
1 25308U 98023C   25290.66668483 -.00000053  00000+0  47184-3 0  9990
2 25308  51.9860  14.8896 0011989 293.3277 236.8605 11.48859464208152
GLOBALSTAR M008         
1 25309U 98023D   25290.52385139 -.00000067  00000+0  22536-3 0  9999
2 25309  51.9961 203.3673 0003407  70.8988 100.5659 12.36074335252975
